*******************************************************************************
 Revised: Jul 31, 2013              Mercury                             199 / 1

 GEOPHYSICAL DATA (updated 2008-Feb-07):
  Mean radius (km)      =  2440(+-1)     Density (g cm^-3)     =  5.427
  Mass (10^23 kg )      =     3.302      Flattening, f         =  
  Volume (x10^10 km^3)  =     6.085      Semi-major axis       = 
  Sidereal rot. period  =    58.6462 d   Rot. Rate (x10^5 s)   =  0.124001
  Mean solar day        =   175.9421 d   Polar gravity ms^-2   =
  Mom. of Inertia       =     0.33       Equ. gravity  ms^-2   =  3.701     
  Core radius (km)      = ~1600          Potential Love # k2   =

  GM (km^3 s^-2)        = 22032.09       Equatorial Radius, Re =    2440 km
  GM 1-sigma (km^3 s^-2)=   +-0.91       Mass ratio (sun/plnt) = 6023600
 
  Atmos. pressure (bar) =                Max. angular diam.    = 11.0"   
  Mean Temperature (K)  =                Visual mag. V(1,0)    = -0.42 
  Geometric albedo      =   0.106        Obliquity to orbit[1] = 2.11' +/- 0.1'  
  Sidereal orb. per.    =   0.2408467 y  Mean Orbit vel.  km/s = 47.362 
  Sidereal orb. per.    =  87.969257  d  Escape vel. km/s      =  4.435
  Hill's sphere rad. Rp =  94.4          Planetary Solar Const = 9936.9 (Wm^2)

[1] Margot et al., Science 316, 2007
*******************************************************************************
 
 
*******************************************************************************
Ephemeris / WWW_USER Sun Jan 18 02:25:54 2015 Pasadena, USA      / Horizons    
*******************************************************************************
Target body name: Mercury (199)                   {source: DE-0431LE-0431}
Center body name: Solar System Barycenter (0)     {source: DE-0431LE-0431}
Center-site name: BODY CENTER
*******************************************************************************
Start time      : A.D. 2015-Jan-18 00:00:00.0000 CT 
Stop  time      : A.D. 2015-Feb-17 00:00:00.0000 CT 
Step-size       : 1440 minutes
*******************************************************************************
Center geodetic : 0.00000000,0.00000000,0.0000000 {E-lon(deg),Lat(deg),Alt(km)}
Center cylindric: 0.00000000,0.00000000,0.0000000 {E-lon(deg),Dxy(km),Dz(km)}
Center radii    : (undefined)                                                  
Output units    : AU-D                                                         
Output format   : 02
Reference frame : ICRF/J2000.0                                                 
Output type     : LT+S CORRECTED cartesian states
Coordinate systm: Ecliptic and Mean Equinox of Reference Epoch                 
*******************************************************************************
JDCT ,   , X, Y, Z, VX, VY, VZ,
*******************************************************************************
$$SOE
2457040.500000000, A.D. 2015-Jan-18 00:00:00.0000,  1.898790092866500E-01,  2.492283708455527E-01,  3.133919848377940E-03, -2.811752786548214E-02,  1.800615372814728E-02,  4.050745176714573E-03,
2457041.500000000, A.D. 2015-Jan-19 00:00:00.0000,  1.608921508101100E-01,  2.659819024081749E-01,  7.162071900327921E-03, -2.981360936317563E-02,  1.546445753926092E-02,  3.998673981505336E-03,
2457042.500000000, A.D. 2015-Jan-20 00:00:00.0000,  1.303405176637400E-01,  2.800913054324649E-01,  1.111773627544809E-02, -3.124153995504433E-02,  1.272393119937008E-02,  3.905754876891630E-03,
2457043.500000000, A.D. 2015-Jan-21 00:00:00.0000,  9.850834755472428E-02,  2.913765606117946E-01,  1.496012617578734E-02, -3.237027992115563E-02,  9.823317386003335E-03,  3.772305709233073E-03,
2457044.500000000, A.D. 2015-Jan-22 00:00:00.0000,  6.570731909365371E-02,  2.996995787390295E-01,  1.864936326621673E-02, -3.317626352657829E-02,  6.807438724607488E-03,  3.599826816445204E-03,
2457045.500000000, A.D. 2015-Jan-23 00:00:00.0000,  3.226831046189690E-02,  3.049693321389823E-01,  2.214765306510048E-02, -3.364483843203884E-02,  3.725223346781859E-03,  3.390971759133469E-03,
2457046.500000000, A.D. 2015-Jan-24 00:00:00.0000, -1.467974025928672E-03,  3.071448079123343E-01,  2.542038622420821E-02, -3.377106715634141E-02,  6.273609503243875E-04,  3.149429331440572E-03,
2457047.500000000, A.D. 2015-Jan-25 00:00:00.0000, -3.516081524476430E-02,  3.062355343692154E-01,  2.843708169155777E-02, -3.355979503369041E-02, -2.436162403103892E-03,  2.879728367666326E-03,
2457048.500000000, A.D. 2015-Jan-26 00:00:00.0000, -6.847899136031514E-02,  3.022996924151605E-01,  3.117210509180728E-02, -3.302499555556088E-02, -5.418386579717458E-03,  2.586987928941690E-03,
2457049.500000000, A.D. 2015-Jan-27 00:00:00.0000, -1.011093165932999E-01,  2.954400751312475E-01,  3.360512198602197E-02, -3.218850509265153E-02, -8.277325625978129E-03,  2.276642030279159E-03,
2457050.500000000, A.D. 2015-Jan-28 00:00:00.0000, -1.327636842712478E-01,  2.857983565468422E-01,  3.572127575254563E-02, -3.107833229395777E-02, -1.097738248233880E-02,  1.954168940674587E-03,
2457051.500000000, A.D. 2015-Jan-29 00:00:00.0000, -1.631842970112426E-01,  2.735482454668941E-01,  3.751110804400161E-02, -2.972676004247163E-02, -1.349016107773748E-02,  1.624850690257914E-03,
2457052.500000000, A.D. 2015-Jan-30 00:00:00.0000, -1.921469835748911E-01,  2.588881244692058E-01,  3.897026163827583E-02, -2.816844916690626E-02, -1.579469411768291E-02,  1.293580481334108E-03,
2457053.500000000, A.D. 2015-Jan-31 00:00:00.0000, -2.194626930662248E-01,  2.420337199608344E-01,  4.009901860590150E-02, -2.643871294536207E-02, -1.787717230648192E-02,  9.647265059145207E-04,
2457054.500000000, A.D. 2015-Feb-01 00:00:00.0000, -2.449773985337197E-01,  2.232112413749539E-01,  4.090173087943638E-02, -2.457207476679006E-02, -1.973029989403114E-02,  6.420522742352892E-04,
2457055.500000000, A.D. 2015-Feb-02 00:00:00.0000, -2.685707247525740E-01,  2.026512949713834E-01,  4.138619706316076E-02, -2.260116284148337E-02, -2.135241259256342E-02,  3.286872825165881E-04,
2457056.500000000, A.D. 2015-Feb-03 00:00:00.0000, -2.901536429803880E-01,  1.805837455107072E-01,  4.156303109058349E-02, -2.055594626553101E-02, -2.274648327381311E-02,  2.713816785375271E-05,
2457057.500000000, A.D. 2015-Feb-04 00:00:00.0000, -3.096655608222942E-01,  1.572335848432881E-01,  4.144505765909710E-02, -1.846328143391214E-02, -2.391911704930309E-02, -2.606707961435384E-04,
2457058.500000000, A.D. 2015-Feb-05 00:00:00.0000, -3.270710929831277E-01,  1.328177791602199E-01,  4.104675835225267E-02, -1.634671750339338E-02, -2.487960849914569E-02, -5.333385149518244E-04,
2457059.500000000, A.D. 2015-Feb-06 00:00:00.0000, -3.423567426778377E-01,  1.075430080849947E-01,  4.038378243625771E-02, -1.422650204577854E-02, -2.563910599651887E-02, -7.899182726471618E-04,
2457060.500000000, A.D. 2015-Feb-07 00:00:00.0000, -3.555276647919039E-01,  8.160417595215480E-02,  3.947252825100395E-02, -1.211972959712147E-02, -2.620990480710961E-02, -1.029846343248187E-03,
2457061.500000000, A.D. 2015-Feb-08 00:00:00.0000, -3.666046277907203E-01,  5.518356313302573E-02,  3.832979513289952E-02, -1.004058284022446E-02, -2.660487329559160E-02, -1.252872979268377E-03,
2457062.500000000, A.D. 2015-Feb-09 00:00:00.0000, -3.756212457654933E-01,  2.845048716765336E-02,  3.697250177726578E-02, -8.000625654775573E-03, -2.683700503255332E-02, -1.458998928740542E-03,
2457063.500000000, A.D. 2015-Feb-10 00:00:00.0000, -3.826215162080523E-01,  1.561354357777022E-03,  3.541746455425229E-02, -6.009117130281601E-03, -2.691908294741518E-02, -1.648419184097621E-03,
2457064.500000000, A.D. 2015-Feb-11 00:00:00.0000, -3.876576728012806E-01, -2.534000193043710E-02,  3.368122815292197E-02, -4.073324606153686E-03, -2.686343871065196E-02, -1.821474601362974E-03,
2457065.500000000, A.D. 2015-Feb-12 00:00:00.0000, -3.907883444581433E-01, -5.212178279859253E-02,  3.177994067771542E-02, -2.198821284992060E-03, -2.668179008244161E-02, -1.978611305225489E-03,
2457066.500000000, A.D. 2015-Feb-13 00:00:00.0000, -3.920770004491899E-01, -7.866355491932121E-02,  2.972926564962942E-02, -3.897598074144107E-04, -2.638514006050417E-02, -2.120347349086540E-03,
2457067.500000000, A.D. 2015-Feb-14 00:00:00.0000, -3.915906551247584E-01, -1.048555056903138E-01,  2.754432402993665E-02,  1.350882512326376E-03, -2.598372356668501E-02, -2.247245859455804E-03,
2457068.500000000, A.D. 2015-Feb-15 00:00:00.0000, -3.893988030428412E-01, -1.305976637583585E-01,  2.523966021231610E-02,  3.021088079400447E-03, -2.548698962793960E-02, -2.359893798871955E-03,
2457069.500000000, A.D. 2015-Feb-16 00:00:00.0000, -3.855725550907559E-01, -1.557991153039278E-01,  2.282922680179277E-02,  4.619612349456907E-03, -2.490360921747148E-02, -2.458885480436466E-03,
2457070.500000000, A.D. 2015-Feb-17 00:00:00.0000, -3.801839475374610E-01, -1.803772376782528E-01,  2.032638384154499E-02,  6.145824203051778E-03, -2.424150094848990E-02, -2.544810022191395E-03,
$$EOE
*******************************************************************************
Coordinate system description:

  Ecliptic and Mean Equinox of Reference Epoch

    Reference epoch: J2000.0
    xy-plane: plane of the Earth's orbit at the reference epoch
    x-axis  : out along ascending node of instantaneous plane of the Earth's
              orbit and the Earth's mean equator at the reference epoch
    z-axis  : perpendicular to the xy-plane in the directional (+ or -) sense
              of Earth's north pole at the reference epoch.

Symbol meaning [1 au=149597870.700 km, 1 day=86400.0 s]:

    JDCT     Epoch Julian Date, Coordinate Time
      X      x-component of position vector (AU)                               
      Y      y-component of position vector (AU)                               
      Z      z-component of position vector (AU)                               
      VX     x-component of velocity vector (AU/day)                           
      VY     y-component of velocity vector (AU/day)                           
      VZ     z-component of velocity vector (AU/day)                           

States have been corrected for Newtonian light-time and relativistic stellar ab

 Computations by ...
     Solar System Dynamics Group, Horizons On-Line Ephemeris System
     4800 Oak Grove Drive, Jet Propulsion Laboratory
     Pasadena, CA  91109   USA
     Information: http://ssd.jpl.nasa.gov/
     Connect    : telnet://ssd.jpl.nasa.gov:6775  (via browser)
                  telnet ssd.jpl.nasa.gov 6775    (via command-line)
     Author     : Jon.Giorgini@jpl.nasa.gov
*******************************************************************************
